{
  "type": "FeatureCollection",
  "features": [
    {
      "type": "Feature",
      "properties": {
        "norad_id": 28051,
        "name": "IRS-P6 (RESOURCESAT-1)",
        "group": "resource",
        "lat": -79.84523955340151,
        "lon": 71.06350585287491,
        "alt_km": 758.7448641590181,
        "timestamp": "2025-12-02T08:59:32.376003+00:00",
        "meta_object_name": "IRS-P6 (RESOURCESAT-1)",
        "meta_object_id": "2003-046A",
        "meta_epoch": "2025-12-02T04:47:15.040032",
        "meta_mean_motion": 14.3606635,
        "meta_eccentricity": 0.0063584,
        "meta_inclination": 98.2194,
        "meta_ra_of_asc_node": 17.0943,
        "meta_arg_of_pericenter": 212.4507,
        "meta_mean_anomaly": 237.6519,
        "meta_ephemeris_type": 0,
        "meta_classification_type": "U",
        "meta_norad_cat_id": 28051,
        "meta_element_set_no": 999,
        "meta_rev_at_epoch": 15225,
        "meta_bstar": 0.00010198,
        "meta_mean_motion_dot": 2.62e-06,
        "meta_mean_motion_ddot": 0,
        "tle_line1": "1 28051U 03046A   25336.19947963  .00000262  00000+0  10198-3 0  9997",
        "tle_line2": "2 28051  98.2194  17.0943 0063584 212.4507 237.6519 14.36066350152254"
      },
      "geometry": {
        "type": "Point",
        "coordinates": [
          71.06350585287491,
          -79.84523955340151
        ]
      }
    },
    {
      "type": "Feature",
      "properties": {
        "norad_id": 28220,
        "name": "SHIYAN-1 (SY-1)",
        "group": "resource",
        "lat": -33.62791526990206,
        "lon": 42.60082977838053,
        "alt_km": 485.39381413133196,
        "timestamp": "2025-12-02T08:59:32.376015+00:00",
        "meta_object_name": "SHIYAN-1 (SY-1)",
        "meta_object_id": "2004-012A",
        "meta_epoch": "2025-12-01T17:25:15.174912",
        "meta_mean_motion": 15.27700086,
        "meta_eccentricity": 0.0006423,
        "meta_inclination": 97.8959,
        "meta_ra_of_asc_node": 36.6177,
        "meta_arg_of_pericenter": 6.0937,
        "meta_mean_anomaly": 354.0378,
        "meta_ephemeris_type": 0,
        "meta_classification_type": "U",
        "meta_norad_cat_id": 28220,
        "meta_element_set_no": 999,
        "meta_rev_at_epoch": 18088,
        "meta_bstar": 0.00050712,
        "meta_mean_motion_dot": 0.00013664,
        "meta_mean_motion_ddot": 0,
        "tle_line1": "1 28220U 04012A   25335.72587008  .00013664  00000+0  50712-3 0  9993",
        "tle_line2": "2 28220  97.8959  36.6177 0006423   6.0937 354.0378 15.27700086180884"
      },
      "geometry": {
        "type": "Point",
        "coordinates": [
          42.60082977838053,
          -33.62791526990206
        ]
      }
    },
    {
      "type": "Feature",
      "properties": {
        "norad_id": 28376,
        "name": "AURA",
        "group": "resource",
        "lat": -23.98630657772084,
        "lon": -69.71404580567446,
        "alt_km": 696.0500859794356,
        "timestamp": "2025-12-02T08:59:32.376026+00:00",
        "meta_object_name": "AURA",
        "meta_object_id": "2004-026A",
        "meta_epoch": "2025-12-01T19:57:10.045728",
        "meta_mean_motion": 14.60903177,
        "meta_eccentricity": 0.0001064,
        "meta_inclination": 98.3168,
        "meta_ra_of_asc_node": 286.0085,
        "meta_arg_of_pericenter": 89.7907,
        "meta_mean_anomaly": 270.3415,
        "meta_ephemeris_type": 0,
        "meta_classification_type": "U",
        "meta_norad_cat_id": 28376,
        "meta_element_set_no": 999,
        "meta_rev_at_epoch": 13739,
        "meta_bstar": 0.00026623,
        "meta_mean_motion_dot": 1.255e-05,
        "meta_mean_motion_ddot": 0,
        "tle_line1": "1 28376U 04026A   25335.83136627  .00001255  00000+0  26623-3 0  9996",
        "tle_line2": "2 28376  98.3168 286.0085 0001064  89.7907 270.3415 14.60903177137396"
      },
      "geometry": {
        "type": "Point",
        "coordinates": [
          -69.71404580567446,
          -23.98630657772084
        ]
      }
    },
    {
      "type": "Feature",
      "properties": {
        "norad_id": 28649,
        "name": "IRS-P5 (CARTOSAT-1)",
        "group": "resource",
        "lat": 7.605979276402499,
        "lon": -175.7371344084614,
        "alt_km": 599.4800367580165,
        "timestamp": "2025-12-02T08:59:32.376037+00:00",
        "meta_object_name": "IRS-P5 (CARTOSAT-1)",
        "meta_object_id": "2005-017A",
        "meta_epoch": "2025-12-02T01:46:36.348384",
        "meta_mean_motion": 14.90343635,
        "meta_eccentricity": 0.0001834,
        "meta_inclination": 97.5508,
        "meta_ra_of_asc_node": 2.9606,
        "meta_arg_of_pericenter": 54.2083,
        "meta_mean_anomaly": 305.9306,
        "meta_ephemeris_type": 0,
        "meta_classification_type": "U",
        "meta_norad_cat_id": 28649,
        "meta_element_set_no": 999,
        "meta_rev_at_epoch": 11445,
        "meta_bstar": 0.00021174,
        "meta_mean_motion_dot": 2.007e-05,
        "meta_mean_motion_ddot": 0,
        "tle_line1": "1 28649U 05017A   25336.07403181  .00002007  00000+0  21174-3 0  9991",
        "tle_line2": "2 28649  97.5508   2.9606 0001834  54.2083 305.9306 14.90343635114455"
      },
      "geometry": {
        "type": "Point",
        "coordinates": [
          -175.7371344084614,
          7.605979276402499
        ]
      }
    },
    {
      "type": "Feature",
      "properties": {
        "norad_id": 28893,
        "name": "SINAH 1",
        "group": "resource",
        "lat": 67.80425743171607,
        "lon": 84.04777270887611,
        "alt_km": 675.4456548174821,
        "timestamp": "2025-12-02T08:59:32.376048+00:00",
        "meta_object_name": "SINAH 1",
        "meta_object_id": "2005-043D",
        "meta_epoch": "2025-12-02T03:45:18.131040",
        "meta_mean_motion": 14.6394238,
        "meta_eccentricity": 0.0014746,
        "meta_inclination": 98.2598,
        "meta_ra_of_asc_node": 104.6859,
        "meta_arg_of_pericenter": 168.8749,
        "meta_mean_anomaly": 191.2782,
        "meta_ephemeris_type": 0,
        "meta_classification_type": "U",
        "meta_norad_cat_id": 28893,
        "meta_element_set_no": 999,
        "meta_rev_at_epoch": 7169,
        "meta_bstar": 0.00012995,
        "meta_mean_motion_dot": 6.32e-06,
        "meta_mean_motion_ddot": 0,
        "tle_line1": "1 28893U 05043D   25336.15645985  .00000632  00000+0  12995-3 0  9993",
        "tle_line2": "2 28893  98.2598 104.6859 0014746 168.8749 191.2782 14.63942380 71694"
      },
      "geometry": {
        "type": "Point",
        "coordinates": [
          84.04777270887611,
          67.80425743171607
        ]
      }
    },
    {
      "type": "Feature",
      "properties": {
        "norad_id": 29079,
        "name": "EROS B",
        "group": "resource",
        "lat": -47.67401594791588,
        "lon": -95.66145763150034,
        "alt_km": 380.39216174232024,
        "timestamp": "2025-12-02T08:59:32.376058+00:00",
        "meta_object_name": "EROS B",
        "meta_object_id": "2006-014A",
        "meta_epoch": "2025-12-02T04:56:57.890976",
        "meta_mean_motion": 15.64254809,
        "meta_eccentricity": 0.0002566,
        "meta_inclination": 97.3487,
        "meta_ra_of_asc_node": 92.3097,
        "meta_arg_of_pericenter": 232.4161,
        "meta_mean_anomaly": 127.6866,
        "meta_ephemeris_type": 0,
        "meta_classification_type": "U",
        "meta_norad_cat_id": 29079,
        "meta_element_set_no": 999,
        "meta_rev_at_epoch": 8915,
        "meta_bstar": 0.0016451,
        "meta_mean_motion_dot": 0.00159297,
        "meta_mean_motion_ddot": 0,
        "tle_line1": "1 29079U 06014A   25336.20622559  .00159297  00000+0  16451-2 0  9999",
        "tle_line2": "2 29079  97.3487  92.3097 0002566 232.4161 127.6866 15.64254809 89158"
      },
      "geometry": {
        "type": "Point",
        "coordinates": [
          -95.66145763150034,
          -47.67401594791588
        ]
      }
    },
    {
      "type": "Feature",
      "properties": {
        "norad_id": 29228,
        "name": "RESURS-DK 1",
        "group": "resource",
        "lat": -19.238684706007817,
        "lon": 121.29183513129327,
        "alt_km": 532.955442832158,
        "timestamp": "2025-12-02T08:59:32.376069+00:00",
        "meta_object_name": "RESURS-DK 1",
        "meta_object_id": "2006-021A",
        "meta_epoch": "2025-12-01T20:22:52.938048",
        "meta_mean_motion": 15.12058271,
        "meta_eccentricity": 0.0007821,
        "meta_inclination": 69.9322,
        "meta_ra_of_asc_node": 129.9787,
        "meta_arg_of_pericenter": 266.5808,
        "meta_mean_anomaly": 93.4463,
        "meta_ephemeris_type": 0,
        "meta_classification_type": "U",
        "meta_norad_cat_id": 29228,
        "meta_element_set_no": 999,
        "meta_rev_at_epoch": 7273,
        "meta_bstar": 0.00020679,
        "meta_mean_motion_dot": 3.46e-05,
        "meta_mean_motion_ddot": 0,
        "tle_line1": "1 29228U 06021A   25335.84922382  .00003460  00000+0  20679-3 0  9997",
        "tle_line2": "2 29228  69.9322 129.9787 0007821 266.5808  93.4463 15.12058271 72732"
      },
      "geometry": {
        "type": "Point",
        "coordinates": [
          121.29183513129327,
          -19.238684706007817
        ]
      }
    }
  ]
}